{"type": "FeatureCollection", "features": [ {"type": "Feature", "properties": {"norad_id": 36047, "name": "COSMOS 2251 DEB", "group": "cosmos-2251-debris", "lat": -37.09888024708604, "lon": 146.35159475488103, "alt_km": 587.1874917933446, "timestamp": "2025-12-22T18:58:53.829806+00:00", "meta": {"OBJECT_NAME": "COSMOS 2251 DEB", "OBJECT_ID": "1993-036AXJ", "EPOCH": "2025-12-21T21:08:53.075040", "MEAN_MOTION": 14.96393257, "ECCENTRICITY": 0.000841, "INCLINATION": 74.036, "RA_OF_ASC_NODE": 315.6865, "ARG_OF_PERICENTER": 344.906, "MEAN_ANOMALY": 15.1873, "EPHEMERIS_TYPE": 0, "CLASSIFICATION_TYPE": "U", "NORAD_CAT_ID": 36047, "ELEMENT_SET_NO": 999, "REV_AT_EPOCH": 66076, "BSTAR": 0.0028311075, "MEAN_MOTION_DOT": 0.00032218, "MEAN_MOTION_DDOT": 0}, "tle": {"line1": "1 36047U 93036AXJ 25355.88116985  .00032218  00000+0  28311-2 0  9999", "line2": "2 36047  74.0360 315.6865 0008410 344.9060  15.1873 14.96393257660764"}}, "geometry": {"type": "Point", "coordinates": [146.35159475488103, -37.09888024708604]}}, {"type": "Feature", "properties": {"norad_id": 36048, "name": "COSMOS 2251 DEB", "group": "cosmos-2251-debris", "lat": -18.314727846134982, "lon": 106.23097096142529, "alt_km": 782.546834851235, "timestamp": "2025-12-22T18:58:53.829817+00:00", "meta": {"OBJECT_NAME": "COSMOS 2251 DEB", "OBJECT_ID": "1993-036AXK", "EPOCH": "2025-12-21T06:01:50.414016", "MEAN_MOTION": 14.37865645, "ECCENTRICITY": 0.0026967, "INCLINATION": 74.0573, "RA_OF_ASC_NODE": 283.6319, "ARG_OF_PERICENTER": 332.094, "MEAN_ANOMALY": 180.7418, "EPHEMERIS_TYPE": 0, "CLASSIFICATION_TYPE": "U", "NORAD_CAT_ID": 36048, "ELEMENT_SET_NO": 999, "REV_AT_EPOCH": 85624, "BSTAR": 0.00021907, "MEAN_MOTION_DOT": 6.37e-06, "MEAN_MOTION_DDOT": 0}, "tle": {"line1": "1 36048U 93036AXK 25355.25127794  .00000637  00000+0  21907-3 0  9996", "line2": "2 36048  74.0573 283.6319 0026967 332.0940 180.7418 14.37865645856245"}}, "geometry": {"type": "Point", "coordinates": [106.23097096142529, -18.314727846134982]}}, {"type": "Feature", "properties": {"norad_id": 36049, "name": "COSMOS 2251 DEB", "group": "cosmos-2251-debris", "lat": 67.99672984674, "lon": -125.19048753738649, "alt_km": 677.8466342955953, "timestamp": "2025-12-22T18:58:53.829827+00:00", "meta": {"OBJECT_NAME": "COSMOS 2251 DEB", "OBJECT_ID": "1993-036AXL", "EPOCH": "2025-12-19T00:11:29.887584", "MEAN_MOTION": 14.62222603, "ECCENTRICITY": 0.00103942, "INCLINATION": 74.0312, "RA_OF_ASC_NODE": 107.1751, "ARG_OF_PERICENTER": 195.1693, "MEAN_ANOMALY": 164.9164, "EPHEMERIS_TYPE": 0, "CLASSIFICATION_TYPE": "U", "NORAD_CAT_ID": 36049, "ELEMENT_SET_NO": 999, "REV_AT_EPOCH": 85456, "BSTAR": 0.00099664593, "MEAN_MOTION_DOT": 4.999e-05, "MEAN_MOTION_DDOT": 0}, "tle": {"line1": "1 36049U 93036AXL 25353.00798481  .00004999  00000+0  99665-3 0  9996", "line2": "2 36049  74.0312 107.1751 0010394 195.1693 164.9164 14.62222603854561"}}, "geometry": {"type": "Point", "coordinates": [-125.19048753738649, 67.99672984674]}}, {"type": "Feature", "properties": {"norad_id": 36050, "name": "COSMOS 2251 DEB", "group": "cosmos-2251-debris", "lat": 36.411046659627424, "lon": -18.641563803987783, "alt_km": 579.9893342835776, "timestamp": "2025-12-22T18:58:53.829837+00:00", "meta": {"OBJECT_NAME": "COSMOS 2251 DEB", "OBJECT_ID": "1993-036AXM", "EPOCH": "2025-12-22T05:32:53.453472", "MEAN_MOTION": 15.01164755, "ECCENTRICITY": 0.00884093, "INCLINATION": 74.0296, "RA_OF_ASC_NODE": 174.6923, "ARG_OF_PERICENTER": 252.1595, "MEAN_ANOMALY": 106.9934, "EPHEMERIS_TYPE": 0, "CLASSIFICATION_TYPE": "U", "NORAD_CAT_ID": 36050, "ELEMENT_SET_NO": 999, "REV_AT_EPOCH": 67177, "BSTAR": 0.00062332037, "MEAN_MOTION_DOT": 8.655e-05, "MEAN_MOTION_DDOT": 0}, "tle": {"line1": "1 36050U 93036AXM 25356.23117423  .00008655  00000+0  62332-3 0  9991", "line2": "2 36050  74.0296 174.6923 0088409 252.1595 106.9934 15.01164755671779"}}, "geometry": {"type": "Point", "coordinates": [-18.641563803987783, 36.411046659627424]}}, {"type": "Feature", "properties": {"norad_id": 36053, "name": "COSMOS 2251 DEB", "group": "cosmos-2251-debris", "lat": -72.8437624132755, "lon": 23.024253840669278, "alt_km": 731.8508018779949, "timestamp": "2025-12-22T18:58:53.829847+00:00", "meta": {"OBJECT_NAME": "COSMOS 2251 DEB", "OBJECT_ID": "1993-036AXQ", "EPOCH": "2025-12-19T02:27:11.674944", "MEAN_MOTION": 14.57252603, "ECCENTRICITY": 0.00325446, "INCLINATION": 73.8697, "RA_OF_ASC_NODE": 140.476, "ARG_OF_PERICENTER": 87.3695, "MEAN_ANOMALY": 273.1193, "EPHEMERIS_TYPE": 0, "CLASSIFICATION_TYPE": "U", "NORAD_CAT_ID": 36053, "ELEMENT_SET_NO": 999, "REV_AT_EPOCH": 87537, "BSTAR": 0.0010759038, "MEAN_MOTION_DOT": 4.872e-05, "MEAN_MOTION_DDOT": 0}, "tle": {"line1": "1 36053U 93036AXQ 25353.10221846  .00004872  00000+0  10759-2 0  9994", "line2": "2 36053  73.8697 140.4760 0032544  87.3695 273.1193 14.57252603875378"}}, "geometry": {"type": "Point", "coordinates": [23.024253840669278, -72.8437624132755]}}, {"type": "Feature", "properties": {"norad_id": 36058, "name": "COSMOS 2251 DEB", "group": "cosmos-2251-debris", "lat": 72.69903734418244, "lon": 81.19992033838851, "alt_km": 675.4765685298753, "timestamp": "2025-12-22T18:58:53.829857+00:00", "meta": {"OBJECT_NAME": "COSMOS 2251 DEB", "OBJECT_ID": "1993-036AXV", "EPOCH": "2025-12-20T18:52:04.818432", "MEAN_MOTION": 14.58726339, "ECCENTRICITY": 0.00440828, "INCLINATION": 74.0229, "RA_OF_ASC_NODE": 18.1226, "ARG_OF_PERICENTER": 150.2394, "MEAN_ANOMALY": 210.1292, "EPHEMERIS_TYPE": 0, "CLASSIFICATION_TYPE": "U", "NORAD_CAT_ID": 36058, "ELEMENT_SET_NO": 999, "REV_AT_EPOCH": 66228, "BSTAR": 0.0002931852, "MEAN_MOTION_DOT": 1.357e-05, "MEAN_MOTION_DDOT": 0}, "tle": {"line1": "1 36058U 93036AXV 25354.78616688  .00001357  00000+0  29319-3 0  9994", "line2": "2 36058  74.0229  18.1226 0044082 150.2394 210.1292 14.58726339662289"}}, "geometry": {"type": "Point", "coordinates": [81.19992033838851, 72.69903734418244]}}, {"type": "Feature", "properties": {"norad_id": 36060, "name": "COSMOS 2251 DEB", "group": "cosmos-2251-debris", "lat": 69.70852530306604, "lon": -14.842140562174611, "alt_km": 754.4123687863648, "timestamp": "2025-12-22T18:58:53.829890+00:00", "meta": {"OBJECT_NAME": "COSMOS 2251 DEB", "OBJECT_ID": "1993-036AXX", "EPOCH": "2025-12-21T20:51:43.648416", "MEAN_MOTION": 14.4201754, "ECCENTRICITY": 0.00155525, "INCLINATION": 74.0279, "RA_OF_ASC_NODE": 217.6359, "ARG_OF_PERICENTER": 313.6591, "MEAN_ANOMALY": 46.3274, "EPHEMERIS_TYPE": 0, "CLASSIFICATION_TYPE": "U", "NORAD_CAT_ID": 36060, "ELEMENT_SET_NO": 999, "REV_AT_EPOCH": 85141, "BSTAR": 0.0002323815, "MEAN_MOTION_DOT": 7.37e-06, "MEAN_MOTION_DDOT": 0}, "tle": {"line1": "1 36060U 93036AXX 25355.86925519  .00000737  00000+0  23238-3 0  9998", "line2": "2 36060  74.0279 217.6359 0015552 313.6591  46.3274 14.42017540851418"}}, "geometry": {"type": "Point", "coordinates": [-14.842140562174611, 69.70852530306604]}}, {"type": "Feature", "properties": {"norad_id": 36061, "name": "COSMOS 2251 DEB", "group": "cosmos-2251-debris", "lat": -15.672044647778138, "lon": -23.247384687965702, "alt_km": 780.1095900030423, "timestamp": "2025-12-22T18:58:53.829902+00:00", "meta": {"OBJECT_NAME": "COSMOS 2251 DEB", "OBJECT_ID": "1993-036AXY", "EPOCH": "2025-12-22T05:39:37.195488", "MEAN_MOTION": 14.33723383, "ECCENTRICITY": 0.00369223, "INCLINATION": 74.0244, "RA_OF_ASC_NODE": 342.3781, "ARG_OF_PERICENTER": 67.3143, "MEAN_ANOMALY": 293.1905, "EPHEMERIS_TYPE": 0, "CLASSIFICATION_TYPE": "U", "NORAD_CAT_ID": 36061, "ELEMENT_SET_NO": 999, "REV_AT_EPOCH": 65240, "BSTAR": 0.00028443086, "MEAN_MOTION_DOT": 7.7e-06, "MEAN_MOTION_DDOT": 0}, "tle": {"line1": "1 36061U 93036AXY 25356.23584717  .00000770  00000+0  28443-3 0  9992", "line2": "2 36061  74.0244 342.3781 0036922  67.3143 293.1905 14.33723383652406"}}, "geometry": {"type": "Point", "coordinates": [-23.247384687965702, -15.672044647778138]}}, {"type": "Feature", "properties": {"norad_id": 36073, "name": "COSMOS 2251 DEB", "group": "cosmos-2251-debris", "lat": 51.172208684832725, "lon": 103.2975547077996, "alt_km": 777.7244444705639, "timestamp": "2025-12-22T18:58:53.829912+00:00", "meta": {"OBJECT_NAME": "COSMOS 2251 DEB", "OBJECT_ID": "1993-036AYL", "EPOCH": "2025-12-18T03:58:06.481920", "MEAN_MOTION": 14.34959898, "ECCENTRICITY": 0.00240895, "INCLINATION": 74.0326, "RA_OF_ASC_NODE": 312.6126, "ARG_OF_PERICENTER": 19.0207, "MEAN_ANOMALY": 341.1839, "EPHEMERIS_TYPE": 0, "CLASSIFICATION_TYPE": "U", "NORAD_CAT_ID": 36073, "ELEMENT_SET_NO": 999, "REV_AT_EPOCH": 70285, "BSTAR": 0.0001893667, "MEAN_MOTION_DOT": 5.14e-06, "MEAN_MOTION_DDOT": 0}, "tle": {"line1": "1 36073U 93036AYL 25352.16535280  .00000514  00000+0  18937-3 0  9997", "line2": "2 36073  74.0326 312.6126 0024089  19.0207 341.1839 14.34959898702857"}}, "geometry": {"type": "Point", "coordinates": [103.2975547077996, 51.172208684832725]}}, {"type": "Feature", "properties": {"norad_id": 36074, "name": "COSMOS 2251 DEB", "group": "cosmos-2251-debris", "lat": -38.979808510507745, "lon": 155.1804336936634, "alt_km": 781.4720450524519, "timestamp": "2025-12-22T18:58:53.829922+00:00", "meta": {"OBJECT_NAME": "COSMOS 2251 DEB", "OBJECT_ID": "1993-036AYM", "EPOCH": "2025-12-21T22:00:31.883616", "MEAN_MOTION": 14.43788604, "ECCENTRICITY": 0.00418297, "INCLINATION": 73.993, "RA_OF_ASC_NODE": 323.3766, "ARG_OF_PERICENTER": 52.2437, "MEAN_ANOMALY": 308.2498, "EPHEMERIS_TYPE": 0, "CLASSIFICATION_TYPE": "U", "NORAD_CAT_ID": 36074, "ELEMENT_SET_NO": 999, "REV_AT_EPOCH": 86042, "BSTAR": 0.0010374017, "MEAN_MOTION_DOT": 3.543e-05, "MEAN_MOTION_DDOT": 0}, "tle": {"line1": "1 36074U 93036AYM 25355.91703569  .00003543  00000+0  10374-2 0  9992", "line2": "2 36074  73.9930 323.3766 0041829  52.2437 308.2498 14.43788604860429"}}, "geometry": {"type": "Point", "coordinates": [155.1804336936634, -38.979808510507745]}}]}